STARLINK-35497          
1 66241U 25245H   25318.75003471 -.00203143  00000+0 -14101-2 0  9996
2 66241  53.1583 102.6748 0000992  62.9186 166.1236 15.74291162  3552
STARLINK-35480          
1 66242U 25245J   25318.75003471 -.00224190  00000+0 -15596-2 0  9991
2 66242  53.1578 102.6633 0001161 110.9910 123.7915 15.74304235  3603
STARLINK-35495          
1 66243U 25245K   25318.75003471 -.00175988  00000+0 -12185-2 0  9993
2 66243  53.1575 102.6716 0000933 119.4385 111.5337 15.74266781  3605
STARLINK-35517          
1 66244U 25245L   25318.25002315  .00126983  00000+0  85863-3 0  9998
2 66244  53.1580 105.1456 0001353 115.9026 161.6914 15.74180424  3315
STARLINK-35503          
1 66245U 25245M   25318.75003471 -.00170838  00000+0 -11836-2 0  9996
2 66245  53.1586 102.6579 0001408  65.0513 171.7222 15.74233168  3551
STARLINK-35434          
1 66246U 25245N   25318.75003471 -.00165436  00000+0 -11456-2 0  9993
2 66246  53.1559 102.6536 0000696  70.6500 168.0427 15.74229081  3398
STARLINK-35481          
1 66247U 25245P   25318.75003471 -.00165792  00000+0 -11480-2 0  9996
2 66247  53.1580 102.6501 0001073  99.7618 140.8465 15.74230309  3606
STARLINK-35416          
1 66248U 25245Q   25318.75003471 -.00169606  00000+0 -11750-2 0  9995
2 66248  53.1583 102.6468 0001139  56.2923 186.2331 15.74231211  3555
STARLINK-35304          
1 66249U 25245R   25318.75003471 -.00161308  00000+0 -11164-2 0  9996
2 66249  53.1583 102.6342 0001020  69.2059 179.0710 15.74228023  3390
STARLINK-35338          
1 66250U 25245S   25318.75003471 -.00171884  00000+0 -11910-2 0  9997
2 66250  53.1578 102.6421 0001323  61.0373 183.4035 15.74233427  3505
STARLINK-35485          
1 66251U 25245T   25318.75003471 -.00161517  00000+0 -11179-2 0  9997
2 66251  53.1581 102.6380 0000576  85.9248 160.4354 15.74227683  3392
STARLINK-35483          
1 66252U 25245U   25318.75003471 -.00162878  00000+0 -11273-2 0  9994
2 66252  53.1586 102.6293 0001359  69.7175 180.4742 15.74230259  3554
