CCSDS_OMM_VERS = 2.0
CREATION_DATE  = 
ORIGINATOR     = 

OBJECT_NAME    = STARLINK-35497
OBJECT_ID      = 2025-245H
CENTER_NAME    = EARTH
REF_FRAME      = TEME
TIME_SYSTEM    = UTC
MEAN_ELEMENT_THEORY = SGP/SGP4

EPOCH          = 2025-11-14T18:00:02.998944
MEAN_MOTION    = 15.74291162
ECCENTRICITY   = .0000992
INCLINATION    = 53.1583
RA_OF_ASC_NODE = 102.6748
ARG_OF_PERICENTER = 62.9186
MEAN_ANOMALY   = 166.1236

EPHEMERIS_TYPE = 0
CLASSIFICATION_TYPE = U
NORAD_CAT_ID   = 66241
ELEMENT_SET_NO = 999
REV_AT_EPOCH   = 355
BSTAR          = -.14101E-2
MEAN_MOTION_DOT = -.203143E-2
MEAN_MOTION_DDOT = 0

CCSDS_OMM_VERS = 2.0
CREATION_DATE  = 
ORIGINATOR     = 

OBJECT_NAME    = STARLINK-35480
OBJECT_ID      = 2025-245J
CENTER_NAME    = EARTH
REF_FRAME      = TEME
TIME_SYSTEM    = UTC
MEAN_ELEMENT_THEORY = SGP/SGP4

EPOCH          = 2025-11-14T18:00:02.998944
MEAN_MOTION    = 15.74304235
ECCENTRICITY   = .0001161
INCLINATION    = 53.1578
RA_OF_ASC_NODE = 102.6633
ARG_OF_PERICENTER = 110.9910
MEAN_ANOMALY   = 123.7915

EPHEMERIS_TYPE = 0
CLASSIFICATION_TYPE = U
NORAD_CAT_ID   = 66242
ELEMENT_SET_NO = 999
REV_AT_EPOCH   = 360
BSTAR          = -.15596E-2
MEAN_MOTION_DOT = -.22419E-2
MEAN_MOTION_DDOT = 0

CCSDS_OMM_VERS = 2.0
CREATION_DATE  = 
ORIGINATOR     = 

OBJECT_NAME    = STARLINK-35495
OBJECT_ID      = 2025-245K
CENTER_NAME    = EARTH
REF_FRAME      = TEME
TIME_SYSTEM    = UTC
MEAN_ELEMENT_THEORY = SGP/SGP4

EPOCH          = 2025-11-14T18:00:02.998944
MEAN_MOTION    = 15.74266781
ECCENTRICITY   = .0000933
INCLINATION    = 53.1575
RA_OF_ASC_NODE = 102.6716
ARG_OF_PERICENTER = 119.4385
MEAN_ANOMALY   = 111.5337

EPHEMERIS_TYPE = 0
CLASSIFICATION_TYPE = U
NORAD_CAT_ID   = 66243
ELEMENT_SET_NO = 999
REV_AT_EPOCH   = 360
BSTAR          = -.12185E-2
MEAN_MOTION_DOT = -.175988E-2
MEAN_MOTION_DDOT = 0

CCSDS_OMM_VERS = 2.0
CREATION_DATE  = 
ORIGINATOR     = 

OBJECT_NAME    = STARLINK-35517
OBJECT_ID      = 2025-245L
CENTER_NAME    = EARTH
REF_FRAME      = TEME
TIME_SYSTEM    = UTC
MEAN_ELEMENT_THEORY = SGP/SGP4

EPOCH          = 2025-11-14T06:00:02.000160
MEAN_MOTION    = 15.74180424
ECCENTRICITY   = .00013535
INCLINATION    = 53.1580
RA_OF_ASC_NODE = 105.1456
ARG_OF_PERICENTER = 115.9026
MEAN_ANOMALY   = 161.6914

EPHEMERIS_TYPE = 0
CLASSIFICATION_TYPE = U
NORAD_CAT_ID   = 66244
ELEMENT_SET_NO = 999
REV_AT_EPOCH   = 331
BSTAR          = .85862529E-3
MEAN_MOTION_DOT = .126983E-2
MEAN_MOTION_DDOT = 0

CCSDS_OMM_VERS = 2.0
CREATION_DATE  = 
ORIGINATOR     = 

OBJECT_NAME    = STARLINK-35503
OBJECT_ID      = 2025-245M
CENTER_NAME    = EARTH
REF_FRAME      = TEME
TIME_SYSTEM    = UTC
MEAN_ELEMENT_THEORY = SGP/SGP4

EPOCH          = 2025-11-14T18:00:02.998944
MEAN_MOTION    = 15.74233168
ECCENTRICITY   = .0001408
INCLINATION    = 53.1586
RA_OF_ASC_NODE = 102.6579
ARG_OF_PERICENTER = 65.0513
MEAN_ANOMALY   = 171.7222

EPHEMERIS_TYPE = 0
CLASSIFICATION_TYPE = U
NORAD_CAT_ID   = 66245
ELEMENT_SET_NO = 999
REV_AT_EPOCH   = 355
BSTAR          = -.11836E-2
MEAN_MOTION_DOT = -.170838E-2
MEAN_MOTION_DDOT = 0

CCSDS_OMM_VERS = 2.0
CREATION_DATE  = 
ORIGINATOR     = 

OBJECT_NAME    = STARLINK-35434
OBJECT_ID      = 2025-245N
CENTER_NAME    = EARTH
REF_FRAME      = TEME
TIME_SYSTEM    = UTC
MEAN_ELEMENT_THEORY = SGP/SGP4

EPOCH          = 2025-11-14T18:00:02.998944
MEAN_MOTION    = 15.74229081
ECCENTRICITY   = .0000696
INCLINATION    = 53.1559
RA_OF_ASC_NODE = 102.6536
ARG_OF_PERICENTER = 70.6500
MEAN_ANOMALY   = 168.0427

EPHEMERIS_TYPE = 0
CLASSIFICATION_TYPE = U
NORAD_CAT_ID   = 66246
ELEMENT_SET_NO = 999
REV_AT_EPOCH   = 339
BSTAR          = -.11456E-2
MEAN_MOTION_DOT = -.165436E-2
MEAN_MOTION_DDOT = 0

CCSDS_OMM_VERS = 2.0
CREATION_DATE  = 
ORIGINATOR     = 

OBJECT_NAME    = STARLINK-35481
OBJECT_ID      = 2025-245P
CENTER_NAME    = EARTH
REF_FRAME      = TEME
TIME_SYSTEM    = UTC
MEAN_ELEMENT_THEORY = SGP/SGP4

EPOCH          = 2025-11-14T18:00:02.998944
MEAN_MOTION    = 15.74230309
ECCENTRICITY   = .0001073
INCLINATION    = 53.1580
RA_OF_ASC_NODE = 102.6501
ARG_OF_PERICENTER = 99.7618
MEAN_ANOMALY   = 140.8465

EPHEMERIS_TYPE = 0
CLASSIFICATION_TYPE = U
NORAD_CAT_ID   = 66247
ELEMENT_SET_NO = 999
REV_AT_EPOCH   = 360
BSTAR          = -.1148E-2
MEAN_MOTION_DOT = -.165792E-2
MEAN_MOTION_DDOT = 0

CCSDS_OMM_VERS = 2.0
CREATION_DATE  = 
ORIGINATOR     = 

OBJECT_NAME    = STARLINK-35416
OBJECT_ID      = 2025-245Q
CENTER_NAME    = EARTH
REF_FRAME      = TEME
TIME_SYSTEM    = UTC
MEAN_ELEMENT_THEORY = SGP/SGP4

EPOCH          = 2025-11-14T18:00:02.998944
MEAN_MOTION    = 15.74231211
ECCENTRICITY   = .0001139
INCLINATION    = 53.1583
RA_OF_ASC_NODE = 102.6468
ARG_OF_PERICENTER = 56.2923
MEAN_ANOMALY   = 186.2331

EPHEMERIS_TYPE = 0
CLASSIFICATION_TYPE = U
NORAD_CAT_ID   = 66248
ELEMENT_SET_NO = 999
REV_AT_EPOCH   = 355
BSTAR          = -.1175E-2
MEAN_MOTION_DOT = -.169606E-2
MEAN_MOTION_DDOT = 0

CCSDS_OMM_VERS = 2.0
CREATION_DATE  = 
ORIGINATOR     = 

OBJECT_NAME    = STARLINK-35304
OBJECT_ID      = 2025-245R
CENTER_NAME    = EARTH
REF_FRAME      = TEME
TIME_SYSTEM    = UTC
MEAN_ELEMENT_THEORY = SGP/SGP4

EPOCH          = 2025-11-14T18:00:02.998944
MEAN_MOTION    = 15.74228023
ECCENTRICITY   = .000102
INCLINATION    = 53.1583
RA_OF_ASC_NODE = 102.6342
ARG_OF_PERICENTER = 69.2059
MEAN_ANOMALY   = 179.0710

EPHEMERIS_TYPE = 0
CLASSIFICATION_TYPE = U
NORAD_CAT_ID   = 66249
ELEMENT_SET_NO = 999
REV_AT_EPOCH   = 339
BSTAR          = -.11164E-2
MEAN_MOTION_DOT = -.161308E-2
MEAN_MOTION_DDOT = 0

CCSDS_OMM_VERS = 2.0
CREATION_DATE  = 
ORIGINATOR     = 

OBJECT_NAME    = STARLINK-35338
OBJECT_ID      = 2025-245S
CENTER_NAME    = EARTH
REF_FRAME      = TEME
TIME_SYSTEM    = UTC
MEAN_ELEMENT_THEORY = SGP/SGP4

EPOCH          = 2025-11-14T18:00:02.998944
MEAN_MOTION    = 15.74233427
ECCENTRICITY   = .0001323
INCLINATION    = 53.1578
RA_OF_ASC_NODE = 102.6421
ARG_OF_PERICENTER = 61.0373
MEAN_ANOMALY   = 183.4035

EPHEMERIS_TYPE = 0
CLASSIFICATION_TYPE = U
NORAD_CAT_ID   = 66250
ELEMENT_SET_NO = 999
REV_AT_EPOCH   = 350
BSTAR          = -.1191E-2
MEAN_MOTION_DOT = -.171884E-2
MEAN_MOTION_DDOT = 0

CCSDS_OMM_VERS = 2.0
CREATION_DATE  = 
ORIGINATOR     = 

OBJECT_NAME    = STARLINK-35485
OBJECT_ID      = 2025-245T
CENTER_NAME    = EARTH
REF_FRAME      = TEME
TIME_SYSTEM    = UTC
MEAN_ELEMENT_THEORY = SGP/SGP4

EPOCH          = 2025-11-14T18:00:02.998944
MEAN_MOTION    = 15.74227683
ECCENTRICITY   = .0000576
INCLINATION    = 53.1581
RA_OF_ASC_NODE = 102.6380
ARG_OF_PERICENTER = 85.9248
MEAN_ANOMALY   = 160.4354

EPHEMERIS_TYPE = 0
CLASSIFICATION_TYPE = U
NORAD_CAT_ID   = 66251
ELEMENT_SET_NO = 999
REV_AT_EPOCH   = 339
BSTAR          = -.11179E-2
MEAN_MOTION_DOT = -.161517E-2
MEAN_MOTION_DDOT = 0

CCSDS_OMM_VERS = 2.0
CREATION_DATE  = 
ORIGINATOR     = 

OBJECT_NAME    = STARLINK-35483
OBJECT_ID      = 2025-245U
CENTER_NAME    = EARTH
REF_FRAME      = TEME
TIME_SYSTEM    = UTC
MEAN_ELEMENT_THEORY = SGP/SGP4

EPOCH          = 2025-11-14T18:00:02.998944
MEAN_MOTION    = 15.74230259
ECCENTRICITY   = .0001359
INCLINATION    = 53.1586
RA_OF_ASC_NODE = 102.6293
ARG_OF_PERICENTER = 69.7175
MEAN_ANOMALY   = 180.4742

EPHEMERIS_TYPE = 0
CLASSIFICATION_TYPE = U
NORAD_CAT_ID   = 66252
ELEMENT_SET_NO = 999
REV_AT_EPOCH   = 355
BSTAR          = -.11273E-2
MEAN_MOTION_DOT = -.162878E-2
MEAN_MOTION_DDOT = 0

